{
  "links" : {
    "next" : "https://api.nasa.gov/neo/rest/v1/feed?start_date=2014-10-16&end_date=2014-10-16&detailed=true&api_key=t0TVs3DtDT2H8Oy2Zy8m2eVrNsAVKAexjcZXUckd",
    "prev" : "https://api.nasa.gov/neo/rest/v1/feed?start_date=2014-10-14&end_date=2014-10-14&detailed=true&api_key=t0TVs3DtDT2H8Oy2Zy8m2eVrNsAVKAexjcZXUckd",
    "self" : "https://api.nasa.gov/neo/rest/v1/feed?start_date=2014-10-15&end_date=2014-10-15&detailed=true&api_key=t0TVs3DtDT2H8Oy2Zy8m2eVrNsAVKAexjcZXUckd"
  },
  "element_count" : 8,
  "near_earth_objects" : {
    "2014-10-15" : [ {
      "links" : {
        "self" : "https://api.nasa.gov/neo/rest/v1/neo/3413261?api_key=t0TVs3DtDT2H8Oy2Zy8m2eVrNsAVKAexjcZXUckd"
      },
      "neo_reference_id" : "3413261",
      "name" : "(2008 LH2)",
      "nasa_jpl_url" : "http://ssd.jpl.nasa.gov/sbdb.cgi?sstr=3413261",
      "absolute_magnitude_h" : 24.4,
      "estimated_diameter" : {
        "kilometers" : {
          "estimated_diameter_min" : 0.0350392641,
          "estimated_diameter_max" : 0.0783501764
        },
        "meters" : {
          "estimated_diameter_min" : 35.0392641108,
          "estimated_diameter_max" : 78.3501764334
        },
        "miles" : {
          "estimated_diameter_min" : 0.0217723826,
          "estimated_diameter_max" : 0.0486845275
        },
        "feet" : {
          "estimated_diameter_min" : 114.9582192654,
          "estimated_diameter_max" : 257.0543928497
        }
      },
      "is_potentially_hazardous_asteroid" : false,
      "close_approach_data" : [ {
        "close_approach_date" : "2014-10-15",
        "epoch_date_close_approach" : 1413356400000,
        "relative_velocity" : {
          "kilometers_per_second" : "15.6256321918",
          "kilometers_per_hour" : "56252.2758903194",
          "miles_per_hour" : "34952.9766497377"
        },
        "miss_distance" : {
          "astronomical" : "0.2569108433",
          "lunar" : "99.9383163452",
          "kilometers" : "38433312",
          "miles" : "23881354"
        },
        "orbiting_body" : "Earth"
      } ],
      "orbital_data" : {
        "orbit_id" : "26",
        "orbit_determination_date" : "2017-04-06 09:03:18",
        "orbit_uncertainty" : "5",
        "minimum_orbit_intersection" : ".00345873",
        "jupiter_tisserand_invariant" : "6.144",
        "epoch_osculation" : "2458000.5",
        "eccentricity" : ".2758682739694071",
        "semi_major_axis" : ".9791126942238814",
        "inclination" : "5.771512761347984",
        "ascending_node_longitude" : "249.3066221656758",
        "orbital_period" : "353.8730170118091",
        "perihelion_distance" : ".7090065652468034",
        "perihelion_argument" : "249.1502056897591",
        "aphelion_distance" : "1.24921882320096",
        "perihelion_time" : "2458076.482168648627",
        "mean_anomaly" : "282.7022705927508",
        "mean_motion" : "1.017314072262216",
        "equinox" : "J2000"
      }
    }, {
      "links" : {
        "self" : "https://api.nasa.gov/neo/rest/v1/neo/3550041?api_key=t0TVs3DtDT2H8Oy2Zy8m2eVrNsAVKAexjcZXUckd"
      },
      "neo_reference_id" : "3550041",
      "name" : "(2010 UX6)",
      "nasa_jpl_url" : "http://ssd.jpl.nasa.gov/sbdb.cgi?sstr=3550041",
      "absolute_magnitude_h" : 23.1,
      "estimated_diameter" : {
        "kilometers" : {
          "estimated_diameter_min" : 0.063760979,
          "estimated_diameter_max" : 0.1425738833
        },
        "meters" : {
          "estimated_diameter_min" : 63.7609789875,
          "estimated_diameter_max" : 142.5738833281
        },
        "miles" : {
          "estimated_diameter_min" : 0.0396192233,
          "estimated_diameter_max" : 0.0885912765
        },
        "feet" : {
          "estimated_diameter_min" : 209.1895703015,
          "estimated_diameter_max" : 467.7620993781
        }
      },
      "is_potentially_hazardous_asteroid" : false,
      "close_approach_data" : [ {
        "close_approach_date" : "2014-10-15",
        "epoch_date_close_approach" : 1413356400000,
        "relative_velocity" : {
          "kilometers_per_second" : "15.7863602416",
          "kilometers_per_hour" : "56830.8968698201",
          "miles_per_hour" : "35312.5092244724"
        },
        "miss_distance" : {
          "astronomical" : "0.2605769215",
          "lunar" : "101.3644256592",
          "kilometers" : "38981756",
          "miles" : "24222140"
        },
        "orbiting_body" : "Earth"
      } ],
      "orbital_data" : {
        "orbit_id" : "37",
        "orbit_determination_date" : "2017-04-06 08:56:10",
        "orbit_uncertainty" : "5",
        "minimum_orbit_intersection" : ".0192204",
        "jupiter_tisserand_invariant" : "3.191",
        "epoch_osculation" : "2458000.5",
        "eccentricity" : ".5992360441491127",
        "semi_major_axis" : "2.499002658538954",
        "inclination" : "1.339565433330834",
        "ascending_node_longitude" : "220.2639870799144",
        "orbital_period" : "1442.9407686729",
        "perihelion_distance" : "1.001510191117955",
        "perihelion_argument" : "208.8284517435526",
        "aphelion_distance" : "3.996495125959952",
        "perihelion_time" : "2458416.741755885856",
        "mean_anomaly" : "256.1516401974523",
        "mean_motion" : ".2494904904039123",
        "equinox" : "J2000"
      }
    }, {
      "links" : {
        "self" : "https://api.nasa.gov/neo/rest/v1/neo/3689343?api_key=t0TVs3DtDT2H8Oy2Zy8m2eVrNsAVKAexjcZXUckd"
      },
      "neo_reference_id" : "3689343",
      "name" : "(2014 SU141)",
      "nasa_jpl_url" : "http://ssd.jpl.nasa.gov/sbdb.cgi?sstr=3689343",
      "absolute_magnitude_h" : 21.4,
      "estimated_diameter" : {
        "kilometers" : {
          "estimated_diameter_min" : 0.1394938229,
          "estimated_diameter_max" : 0.3119176705
        },
        "meters" : {
          "estimated_diameter_min" : 139.4938229344,
          "estimated_diameter_max" : 311.9176705226
        },
        "miles" : {
          "estimated_diameter_min" : 0.0866774163,
          "estimated_diameter_max" : 0.1938165949
        },
        "feet" : {
          "estimated_diameter_min" : 457.6569140361,
          "estimated_diameter_max" : 1023.3519701574
        }
      },
      "is_potentially_hazardous_asteroid" : false,
      "close_approach_data" : [ {
        "close_approach_date" : "2014-10-15",
        "epoch_date_close_approach" : 1413356400000,
        "relative_velocity" : {
          "kilometers_per_second" : "7.4754525905",
          "kilometers_per_hour" : "26911.6293256535",
          "miles_per_hour" : "16721.8398995984"
        },
        "miss_distance" : {
          "astronomical" : "0.2514361235",
          "lunar" : "97.8086471558",
          "kilometers" : "37614308",
          "miles" : "23372448"
        },
        "orbiting_body" : "Earth"
      } ],
      "orbital_data" : {
        "orbit_id" : "23",
        "orbit_determination_date" : "2017-04-06 08:38:38",
        "orbit_uncertainty" : "5",
        "minimum_orbit_intersection" : ".23893",
        "jupiter_tisserand_invariant" : "3.141",
        "epoch_osculation" : "2458000.5",
        "eccentricity" : ".536858923396807",
        "semi_major_axis" : "2.645290266979468",
        "inclination" : "12.67091272833503",
        "ascending_node_longitude" : "36.36597991562651",
        "orbital_period" : "1571.478442924338",
        "perihelion_distance" : "1.225142582176819",
        "perihelion_argument" : "339.10610888",
        "aphelion_distance" : "4.065437951782118",
        "perihelion_time" : "2458516.703754779449",
        "mean_anomaly" : "241.7461654931853",
        "mean_motion" : ".2290836387994492",
        "equinox" : "J2000"
      }
    } ]
  }
}